*******************************************************************************
 Revised: April 12, 2021       Neptune Barycenter                             8
 
 Dynamical point:
 ---------------
 The location of the center-of-mass of the Neptune system. The point about 
 which Neptune and its satellites revolve. See 899 for Neptune center.
*******************************************************************************


*******************************************************************************
Ephemeris / WWW_USER Mon Jan  5 13:50:13 2026 Pasadena, USA      / Horizons
*******************************************************************************
Target body name: Neptune Barycenter (8)          {source: DE441}
Center body name: Solar System Barycenter (0)     {source: DE441}
Center-site name: BODY CENTER
*******************************************************************************
Start time      : A.D. 2026-Jan-05 00:00:00.0000 TDB
Stop  time      : A.D. 2026-Apr-03 00:00:00.0000 TDB
Step-size       : 1440 minutes
*******************************************************************************
Center geodetic : 0.0, 0.0, 0.0                   {E-lon(deg),Lat(deg),Alt(km)}
Center cylindric: 0.0, 0.0, 0.0                   {E-lon(deg),Dxy(km),Dz(km)}
Center radii    : (undefined)
Output units    : KM-S
Calendar mode   : Mixed Julian/Gregorian
Output type     : GEOMETRIC cartesian states
Output format   : 3 (position, velocity, LT, range, range-rate)
Reference frame : Ecliptic of J2000.0
*******************************************************************************
JDTDB
   X     Y     Z
   VX    VY    VZ
   LT    RG    RR
*******************************************************************************
$$SOE
2461073.500000000 = A.D. 2026-Feb-02 00:00:00.0000 TDB 
 X = 4.467964061056595E+09 Y = 9.191833923992841E+07 Z =-1.048616879066835E+08
 VX=-1.475807533047735E-01 VY= 5.466355782531443E+00 VZ=-1.091692413901844E-01
 LT= 1.491078062206739E+04 RG= 4.470139573388352E+09 RR=-3.254473005516870E-02
2461074.500000000 = A.D. 2026-Feb-03 00:00:00.0000 TDB 
 X = 4.467951285270271E+09 Y = 9.239063186797616E+07 Z =-1.048711195469329E+08
 VX=-1.481550411367712E-01 VY= 5.466343930676902E+00 VZ=-1.091557641769223E-01
 LT= 1.491077124321686E+04 RG= 4.470136761679698E+09 RR=-3.254111837385878E-02
2461075.500000000 = A.D. 2026-Feb-04 00:00:00.0000 TDB 
 X = 4.467938459865501E+09 Y = 9.286292346940078E+07 Z =-1.048805500226976E+08
 VX=-1.487293284615053E-01 VY= 5.466332018107544E+00 VZ=-1.091422857251743E-01
 LT= 1.491076186540726E+04 RG= 4.470133950283107E+09 RR=-3.253750638064658E-02
2461076.500000000 = A.D. 2026-Feb-05 00:00:00.0000 TDB 
 X = 4.467925584842328E+09 Y = 9.333521403895655E+07 Z =-1.048899793338705E+08
 VX=-1.493036152724846E-01 VY= 5.466320044823389E+00 VZ=-1.091288060350872E-01
 LT= 1.491075248863868E+04 RG= 4.470131139198606E+09 RR=-3.253389407557338E-02
2461077.500000000 = A.D. 2026-Feb-06 00:00:00.0000 TDB 
 X = 4.467912660200797E+09 Y = 9.380750357139769E+07 Z =-1.048994074803448E+08
 VX=-1.498779015632179E-01 VY= 5.466308010824455E+00 VZ=-1.091153251068055E-01
 LT= 1.491074311291120E+04 RG= 4.470128328426220E+09 RR=-3.253028145868051E-02
2461078.500000000 = A.D. 2026-Feb-07 00:00:00.0000 TDB 
 X = 4.467899685940953E+09 Y = 9.427979206147842E+07 Z =-1.049088344620133E+08
 VX=-1.504521873272135E-01 VY= 5.466295916110759E+00 VZ=-1.091018429404735E-01
 LT= 1.491073373822492E+04 RG= 4.470125517965979E+09 RR=-3.252666853000875E-02
2461079.500000000 = A.D. 2026-Feb-08 00:00:00.0000 TDB 
 X = 4.467886662062842E+09 Y = 9.475207950395304E+07 Z =-1.049182602787692E+08
 VX=-1.510264725579799E-01 VY= 5.466283760682319E+00 VZ=-1.090883595362377E-01
 LT= 1.491072436457993E+04 RG= 4.470122707817906E+09 RR=-3.252305528959874E-02
2461080.500000000 = A.D. 2026-Feb-09 00:00:00.0000 TDB 
 X = 4.467873588566510E+09 Y = 9.522436589357576E+07 Z =-1.049276849305055E+08
 VX=-1.516007572490247E-01 VY= 5.466271544539159E+00 VZ=-1.090748748942432E-01
 LT= 1.491071499197633E+04 RG= 4.470119897982033E+09 RR=-3.251944173749075E-02
2461081.500000000 = A.D. 2026-Feb-10 00:00:00.0000 TDB 
 X = 4.467860465452005E+09 Y = 9.569665122510082E+07 Z =-1.049371084171153E+08
 VX=-1.521750413938558E-01 VY= 5.466259267681295E+00 VZ=-1.090613890146352E-01
 LT= 1.491070562041419E+04 RG= 4.470117088458384E+09 RR=-3.251582787372490E-02
2461082.500000000 = A.D. 2026-Feb-11 00:00:00.0000 TDB 
 X = 4.467847292719374E+09 Y = 9.616893549328250E+07 Z =-1.049465307384916E+08
 VX=-1.527493249859805E-01 VY= 5.466246930108748E+00 VZ=-1.090479018975588E-01
 LT= 1.491069624989360E+04 RG= 4.470114279246984E+09 RR=-3.251221369834088E-02
2461083.500000000 = A.D. 2026-Feb-12 00:00:00.0000 TDB 
 X = 4.467834070368664E+09 Y = 9.664121869287503E+07 Z =-1.049559518945276E+08
 VX=-1.533236080189060E-01 VY= 5.466234531821543E+00 VZ=-1.090344135431602E-01
 LT= 1.491068688041467E+04 RG= 4.470111470347865E+09 RR=-3.250859921137822E-02
2461084.500000000 = A.D. 2026-Feb-13 00:00:00.0000 TDB 
 X = 4.467820798399924E+09 Y = 9.711350081863268E+07 Z =-1.049653718851162E+08
 VX=-1.538978904861392E-01 VY= 5.466222072819696E+00 VZ=-1.090209239515849E-01
 LT= 1.491067751197747E+04 RG= 4.470108661761050E+09 RR=-3.250498441287616E-02
2461085.500000000 = A.D. 2026-Feb-14 00:00:00.0000 TDB 
 X = 4.467807476813204E+09 Y = 9.758578186530970E+07 Z =-1.049747907101508E+08
 VX=-1.544721723811866E-01 VY= 5.466209553103231E+00 VZ=-1.090074331229784E-01
 LT= 1.491066814458210E+04 RG= 4.470105853486567E+09 RR=-3.250136930287366E-02
2461086.500000000 = A.D. 2026-Feb-15 00:00:00.0000 TDB 
 X = 4.467794105608553E+09 Y = 9.805806182766032E+07 Z =-1.049842083695243E+08
 VX=-1.550464536975547E-01 VY= 5.466196972672171E+00 VZ=-1.089939410574861E-01
 LT= 1.491065877822865E+04 RG= 4.470103045524443E+09 RR=-3.249775388140944E-02
2461087.500000000 = A.D. 2026-Feb-16 00:00:00.0000 TDB 
 X = 4.467780684786022E+09 Y = 9.853034070043886E+07 Z =-1.049936248631299E+08
 VX=-1.556207344287495E-01 VY= 5.466184331526539E+00 VZ=-1.089804477552530E-01
 LT= 1.491064941291721E+04 RG= 4.470100237874706E+09 RR=-3.249413814852180E-02
2461088.500000000 = A.D. 2026-Feb-17 00:00:00.0000 TDB 
 X = 4.467767214345661E+09 Y = 9.900261847839954E+07 Z =-1.050030401908608E+08
 VX=-1.561950145682770E-01 VY= 5.466171629666357E+00 VZ=-1.089669532164270E-01
 LT= 1.491064004864786E+04 RG= 4.470097430537380E+09 RR=-3.249052210424887E-02
2461089.500000000 = A.D. 2026-Feb-18 00:00:00.0000 TDB 
 X = 4.467753694287522E+09 Y = 9.947489515629664E+07 Z =-1.050124543526101E+08
 VX=-1.567692941096426E-01 VY= 5.466158867091650E+00 VZ=-1.089534574411519E-01
 LT= 1.491063068542070E+04 RG= 4.470094623512495E+09 RR=-3.248690574862858E-02
2461090.500000000 = A.D. 2026-Feb-19 00:00:00.0000 TDB 
 X = 4.467740124611656E+09 Y = 9.994717072888440E+07 Z =-1.050218673482710E+08
 VX=-1.573435730463518E-01 VY= 5.466146043802442E+00 VZ=-1.089399604295742E-01
 LT= 1.491062132323581E+04 RG= 4.470091816800076E+09 RR=-3.248328908169847E-02
2461091.500000000 = A.D. 2026-Feb-20 00:00:00.0000 TDB 
 X = 4.467726505318117E+09 Y = 1.004194451909171E+08 Z =-1.050312791777367E+08
 VX=-1.579178513719095E-01 VY= 5.466133159798757E+00 VZ=-1.089264621818391E-01
 LT= 1.491061196209330E+04 RG= 4.470089010400151E+09 RR=-3.247967210349590E-02
2461092.500000000 = A.D. 2026-Feb-21 00:00:00.0000 TDB 
 X = 4.467712836406957E+09 Y = 1.008917185371491E+08 Z =-1.050406898409004E+08
 VX=-1.584921290798206E-01 VY= 5.466120215080622E+00 VZ=-1.089129626980936E-01
 LT= 1.491060260199323E+04 RG= 4.470086204312746E+09 RR=-3.247605481405775E-02
2461093.500000000 = A.D. 2026-Feb-22 00:00:00.0000 TDB 
 X = 4.467699117878230E+09 Y = 1.013639907623345E+08 Z =-1.050500993376554E+08
 VX=-1.590664061635896E-01 VY= 5.466107209648062E+00 VZ=-1.088994619784835E-01
 LT= 1.491059324293571E+04 RG= 4.470083398537888E+09 RR=-3.247243721342087E-02
2461094.500000000 = A.D. 2026-Feb-23 00:00:00.0000 TDB 
 X = 4.467685349731990E+09 Y = 1.018362618612277E+08 Z =-1.050595076678947E+08
 VX=-1.596406826167208E-01 VY= 5.466094143501103E+00 VZ=-1.088859600231546E-01
 LT= 1.491058388492083E+04 RG= 4.470080593075603E+09 RR=-3.246881930162174E-02
2461095.500000000 = A.D. 2026-Feb-24 00:00:00.0000 TDB 
 X = 4.467671531968292E+09 Y = 1.023085318285829E+08 Z =-1.050689148315118E+08
 VX=-1.602149584327182E-01 VY= 5.466081016639769E+00 VZ=-1.088724568322521E-01
 LT= 1.491057452794867E+04 RG= 4.470077787925922E+09 RR=-3.246520107869663E-02
2461096.500000000 = A.D. 2026-Feb-25 00:00:00.0000 TDB 
 X = 4.467657664587192E+09 Y = 1.027808006591544E+08 Z =-1.050783208283997E+08
 VX=-1.607892336050856E-01 VY= 5.466067829064092E+00 VZ=-1.088589524059242E-01
 LT= 1.491056517201933E+04 RG= 4.470074983088866E+09 RR=-3.246158254468134E-02
2461097.500000000 = A.D. 2026-Feb-26 00:00:00.0000 TDB 
 X = 4.467643747588744E+09 Y = 1.032530683476966E+08 Z =-1.050877256584519E+08
 VX=-1.613635081273264E-01 VY= 5.466054580774098E+00 VZ=-1.088454467443156E-01
 LT= 1.491055581713289E+04 RG= 4.470072178564466E+09 RR=-3.245796369961155E-02
2461098.500000000 = A.D. 2026-Feb-27 00:00:00.0000 TDB 
 X = 4.467629780973006E+09 Y = 1.037253348889636E+08 Z =-1.050971293215616E+08
 VX=-1.619377819929440E-01 VY= 5.466041271769813E+00 VZ=-1.088319398475732E-01
 LT= 1.491054646328944E+04 RG= 4.470069374352749E+09 RR=-3.245434454352272E-02
2461099.500000000 = A.D. 2026-Feb-28 00:00:00.0000 TDB 
 X = 4.467615764740035E+09 Y = 1.041976002777098E+08 Z =-1.051065318176220E+08
 VX=-1.625120551954412E-01 VY= 5.466027902051268E+00 VZ=-1.088184317158418E-01
 LT= 1.491053711048908E+04 RG= 4.470066570453739E+09 RR=-3.245072507644998E-02
2461100.500000000 = A.D. 2026-Mar-01 00:00:00.0000 TDB 
 X = 4.467601698889888E+09 Y = 1.046698645086895E+08 Z =-1.051159331465265E+08
 VX=-1.630863277283208E-01 VY= 5.466014471618491E+00 VZ=-1.088049223492695E-01
 LT= 1.491052775873189E+04 RG= 4.470063766867464E+09 RR=-3.244710529842804E-02
